{
    "links": {
        "self": "http://www.neowsapp.com/rest/v1/neo/3616701?api_key=iIulBulltgU6a56xZRHN4H3l9WmuAYTsLGpBGhQ2"
    },
    "id": "3616701",
    "neo_reference_id": "3616701",
    "name": "(2012 VS6)",
    "designation": "2012 VS6",
    "nasa_jpl_url": "http://ssd.jpl.nasa.gov/sbdb.cgi?sstr=3616701",
    "absolute_magnitude_h": 23.8,
    "estimated_diameter": {
        "kilometers": {
            "estimated_diameter_min": 0.046190746,
            "estimated_diameter_max": 0.1032856481
        },
        "meters": {
            "estimated_diameter_min": 46.1907460282,
            "estimated_diameter_max": 103.2856480504
        },
        "miles": {
            "estimated_diameter_min": 0.0287015901,
            "estimated_diameter_max": 0.0641787064
        },
        "feet": {
            "estimated_diameter_min": 151.544447199,
            "estimated_diameter_max": 338.8636855496
        }
    },
    "is_potentially_hazardous_asteroid": false,
    "close_approach_data": [
        {
            "close_approach_date": "2012-10-30",
            "close_approach_date_full": "2012-Oct-30 05:38",
            "epoch_date_close_approach": 1351575480000,
            "relative_velocity": {
                "kilometers_per_second": "18.7111808924",
                "kilometers_per_hour": "67360.2512125932",
                "miles_per_hour": "41855.0405381805"
            },
            "miss_distance": {
                "astronomical": "0.0929706806",
                "lunar": "36.1655947534",
                "kilometers": "13908215.790210322",
                "miles": "8642164.5495415636"
            },
            "orbiting_body": "Earth"
        }
    ],
    "orbital_data": {
        "orbit_id": "6",
        "orbit_determination_date": "2017-04-06 08:48:09",
        "first_observation_date": "2012-11-04",
        "last_observation_date": "2012-11-13",
        "data_arc_in_days": 9,
        "observations_used": 24,
        "orbit_uncertainty": "9",
        "minimum_orbit_intersection": ".090268",
        "jupiter_tisserand_invariant": "4.848",
        "epoch_osculation": "2456239.5",
        "eccentricity": ".3595063973699018",
        "semi_major_axis": "1.283404331795467",
        "inclination": "31.1388505514883",
        "ascending_node_longitude": "222.5167762764955",
        "orbital_period": "531.0601063178037",
        "perihelion_distance": ".8220122641027525",
        "perihelion_argument": "92.04015938021141",
        "aphelion_distance": "1.744796399488181",
        "perihelion_time": "2456165.470145434680",
        "mean_anomaly": "50.18405134647136",
        "mean_motion": ".6778893682979159",
        "equinox": "J2000",
        "orbit_class": {
            "orbit_class_type": "APO",
            "orbit_class_description": "Near-Earth asteroid orbits which cross the Earth’s orbit similar to that of 1862 Apollo",
            "orbit_class_range": "a (semi-major axis) > 1.0 AU; q (perihelion) < 1.017 AU"
        }
    },
    "is_sentry_object": false
}